{
    "links": {
        "self": "http://www.neowsapp.com/rest/v1/neo/3986847?api_key=iIulBulltgU6a56xZRHN4H3l9WmuAYTsLGpBGhQ2"
    },
    "id": "3986847",
    "neo_reference_id": "3986847",
    "name": "(2020 BU3)",
    "designation": "2020 BU3",
    "nasa_jpl_url": "http://ssd.jpl.nasa.gov/sbdb.cgi?sstr=3986847",
    "absolute_magnitude_h": 23.407,
    "estimated_diameter": {
        "kilometers": {
            "estimated_diameter_min": 0.0553547606,
            "estimated_diameter_max": 0.1237770075
        },
        "meters": {
            "estimated_diameter_min": 55.3547605681,
            "estimated_diameter_max": 123.7770075085
        },
        "miles": {
            "estimated_diameter_min": 0.0343958429,
            "estimated_diameter_max": 0.0769114429
        },
        "feet": {
            "estimated_diameter_min": 181.6101126622,
            "estimated_diameter_max": 406.0925573141
        }
    },
    "is_potentially_hazardous_asteroid": false,
    "close_approach_data": [
        {
            "close_approach_date": "1969-06-02",
            "close_approach_date_full": "1969-Jun-02 07:32",
            "epoch_date_close_approach": -18376080000,
            "relative_velocity": {
                "kilometers_per_second": "10.3882411113",
                "kilometers_per_hour": "37397.6680007812",
                "miles_per_hour": "23237.4565419298"
            },
            "miss_distance": {
                "astronomical": "1.6217203968",
                "lunar": "630.8492343552",
                "kilometers": "242605917.096834816",
                "miles": "150748326.5911838208"
            },
            "orbiting_body": "Juptr"
        },
        {
            "close_approach_date": "2019-11-01",
            "close_approach_date_full": "2019-Nov-01 09:38",
            "epoch_date_close_approach": 1572601080000,
            "relative_velocity": {
                "kilometers_per_second": "32.9666631091",
                "kilometers_per_hour": "118679.9871929058",
                "miles_per_hour": "73743.1287088364"
            },
            "miss_distance": {
                "astronomical": "0.0659134895",
                "lunar": "25.6403474155",
                "kilometers": "9860517.633467365",
                "miles": "6127041.542745037"
            },
            "orbiting_body": "Venus"
        },
        {
            "close_approach_date": "2020-01-09",
            "close_approach_date_full": "2020-Jan-09 02:25",
            "epoch_date_close_approach": 1578536700000,
            "relative_velocity": {
                "kilometers_per_second": "26.1462469699",
                "kilometers_per_hour": "94126.4890917178",
                "miles_per_hour": "58486.5398470176"
            },
            "miss_distance": {
                "astronomical": "0.080306932",
                "lunar": "31.239396548",
                "kilometers": "12013745.97343484",
                "miles": "7464995.591447192"
            },
            "orbiting_body": "Earth"
        }
    ],
    "orbital_data": {
        "orbit_id": "5",
        "orbit_determination_date": "2020-02-01 05:47:32",
        "first_observation_date": "2020-01-19",
        "last_observation_date": "2020-01-24",
        "data_arc_in_days": 5,
        "observations_used": 27,
        "orbit_uncertainty": "9",
        "minimum_orbit_intersection": ".0115576",
        "jupiter_tisserand_invariant": "2.800",
        "epoch_osculation": "2458871.5",
        "eccentricity": ".8454265731880568",
        "semi_major_axis": "2.532011740107647",
        "inclination": "1.845065919558168",
        "ascending_node_longitude": "52.97262452169776",
        "orbital_period": "1471.624465931361",
        "perihelion_distance": ".3913817313965103",
        "perihelion_argument": "310.5532216245078",
        "aphelion_distance": "4.672641748818783",
        "perihelion_time": "2458815.224187550798",
        "mean_anomaly": "13.76661842115477",
        "mean_motion": ".244627626364015",
        "equinox": "J2000",
        "orbit_class": {
            "orbit_class_type": "APO",
            "orbit_class_description": "Near-Earth asteroid orbits which cross the Earth’s orbit similar to that of 1862 Apollo",
            "orbit_class_range": "a (semi-major axis) > 1.0 AU; q (perihelion) < 1.017 AU"
        }
    },
    "is_sentry_object": false
}